STARLINK-1865
1 26741C 20074C   21325.15645406  .00004121  00000-0  27612-3 0  3251
2 26741  53.0511 167.5317 0001992  71.9943 235.6473 15.06388420    11
